{
  "type": "FeatureCollection",
  "features": [
    {
      "type": "Feature",
      "properties": {
        "norad_id": 36724,
        "name": "FENGYUN 1C DEB",
        "group": "fengyun-1c-debris",
        "lat": -51.844957655347784,
        "lon": -162.49201005167268,
        "alt_km": 781.4048146325122,
        "timestamp": "2025-12-23T05:02:12.319490+00:00",
        "meta_object_name": "FENGYUN 1C DEB",
        "meta_object_id": "1999-025EAW",
        "meta_epoch": "2025-12-22T01:08:19.052736",
        "meta_mean_motion": 14.25358317,
        "meta_eccentricity": 0.01037225,
        "meta_inclination": 99.4676,
        "meta_ra_of_asc_node": 28.5169,
        "meta_arg_of_pericenter": 171.606,
        "meta_mean_anomaly": 218.6674,
        "meta_ephemeris_type": 0,
        "meta_classification_type": "U",
        "meta_norad_cat_id": 36724,
        "meta_element_set_no": 999,
        "meta_rev_at_epoch": 57605,
        "meta_bstar": 0.0017254927,
        "meta_mean_motion_dot": 4.254e-05,
        "meta_mean_motion_ddot": 0,
        "tle_line1": "1 36724U 99025EAW 25356.04744274  .00004254  00000+0  17255-2 0  9996",
        "tle_line2": "2 36724  99.4676  28.5169 0103722 171.6060 218.6674 14.25358317576058"
      },
      "geometry": {
        "type": "Point",
        "coordinates": [
          -162.49201005167268,
          -51.844957655347784
        ]
      }
    },
    {
      "type": "Feature",
      "properties": {
        "norad_id": 36729,
        "name": "FENGYUN 1C DEB",
        "group": "fengyun-1c-debris",
        "lat": 76.91180261838154,
        "lon": -62.55742673345807,
        "alt_km": 878.1531203670584,
        "timestamp": "2025-12-23T05:02:12.319500+00:00",
        "meta_object_name": "FENGYUN 1C DEB",
        "meta_object_id": "1999-025EBB",
        "meta_epoch": "2025-12-16T04:05:17.827872",
        "meta_mean_motion": 14.10320494,
        "meta_eccentricity": 0.00453471,
        "meta_inclination": 98.708,
        "meta_ra_of_asc_node": 331.8661,
        "meta_arg_of_pericenter": 246.1932,
        "meta_mean_anomaly": 113.4481,
        "meta_ephemeris_type": 0,
        "meta_classification_type": "U",
        "meta_norad_cat_id": 36729,
        "meta_element_set_no": 999,
        "meta_rev_at_epoch": 87300,
        "meta_bstar": 0.00030652739,
        "meta_mean_motion_dot": 5.06e-06,
        "meta_mean_motion_ddot": 0,
        "tle_line1": "1 36729U 99025EBB 25350.17034523  .00000506  00000+0  30653-3 0  9992",
        "tle_line2": "2 36729  98.7080 331.8661 0045347 246.1932 113.4481 14.10320494873007"
      },
      "geometry": {
        "type": "Point",
        "coordinates": [
          -62.55742673345807,
          76.91180261838154
        ]
      }
    },
    {
      "type": "Feature",
      "properties": {
        "norad_id": 36734,
        "name": "FENGYUN 1C DEB",
        "group": "fengyun-1c-debris",
        "lat": 65.1396781567877,
        "lon": 24.318156727019378,
        "alt_km": 813.2544957674063,
        "timestamp": "2025-12-23T05:02:12.319510+00:00",
        "meta_object_name": "FENGYUN 1C DEB",
        "meta_object_id": "1999-025EBG",
        "meta_epoch": "2025-12-20T14:24:43.327872",
        "meta_mean_motion": 14.25911964,
        "meta_eccentricity": 0.00365777,
        "meta_inclination": 99.0553,
        "meta_ra_of_asc_node": 41.7554,
        "meta_arg_of_pericenter": 197.3577,
        "meta_mean_anomaly": 162.6354,
        "meta_ephemeris_type": 0,
        "meta_classification_type": "U",
        "meta_norad_cat_id": 36734,
        "meta_element_set_no": 999,
        "meta_rev_at_epoch": 82846,
        "meta_bstar": 0.0010627583,
        "meta_mean_motion_dot": 2.503e-05,
        "meta_mean_motion_ddot": 0,
        "tle_line1": "1 36734U 99025EBG 25354.60050148  .00002503  00000+0  10628-2 0  9999",
        "tle_line2": "2 36734  99.0553  41.7554 0036577 197.3577 162.6354 14.25911964828466"
      },
      "geometry": {
        "type": "Point",
        "coordinates": [
          24.318156727019378,
          65.1396781567877
        ]
      }
    },
    {
      "type": "Feature",
      "properties": {
        "norad_id": 36736,
        "name": "FENGYUN 1C DEB",
        "group": "fengyun-1c-debris",
        "lat": 27.93001740035201,
        "lon": -104.57192179464724,
        "alt_km": 772.5418889564289,
        "timestamp": "2025-12-23T05:02:12.319520+00:00",
        "meta_object_name": "FENGYUN 1C DEB",
        "meta_object_id": "1999-025EBJ",
        "meta_epoch": "2025-12-19T22:50:38.532768",
        "meta_mean_motion": 14.25518256,
        "meta_eccentricity": 0.00607429,
        "meta_inclination": 98.8062,
        "meta_ra_of_asc_node": 67.4431,
        "meta_arg_of_pericenter": 119.7313,
        "meta_mean_anomaly": 240.9929,
        "meta_ephemeris_type": 0,
        "meta_classification_type": "U",
        "meta_norad_cat_id": 36736,
        "meta_element_set_no": 999,
        "meta_rev_at_epoch": 88718,
        "meta_bstar": 0.0010514399,
        "meta_mean_motion_dot": 2.49e-05,
        "meta_mean_motion_ddot": 0,
        "tle_line1": "1 36736U 99025EBJ 25353.95183487  .00002490  00000+0  10514-2 0  9990",
        "tle_line2": "2 36736  98.8062  67.4431 0060742 119.7313 240.9929 14.25518256887185"
      },
      "geometry": {
        "type": "Point",
        "coordinates": [
          -104.57192179464724,
          27.93001740035201
        ]
      }
    },
    {
      "type": "Feature",
      "properties": {
        "norad_id": 36743,
        "name": "FENGYUN 1C DEB",
        "group": "fengyun-1c-debris",
        "lat": -42.1525364932455,
        "lon": 53.327408393875444,
        "alt_km": 770.3789949089805,
        "timestamp": "2025-12-23T05:02:12.319530+00:00",
        "meta_object_name": "FENGYUN 1C DEB",
        "meta_object_id": "1999-025EBR",
        "meta_epoch": "2025-12-15T20:48:16.336800",
        "meta_mean_motion": 14.29116099,
        "meta_eccentricity": 0.0047177,
        "meta_inclination": 98.6557,
        "meta_ra_of_asc_node": 38.1117,
        "meta_arg_of_pericenter": 3.5743,
        "meta_mean_anomaly": 356.5766,
        "meta_ephemeris_type": 0,
        "meta_classification_type": "U",
        "meta_norad_cat_id": 36743,
        "meta_element_set_no": 999,
        "meta_rev_at_epoch": 60782,
        "meta_bstar": 0.00095050245,
        "meta_mean_motion_dot": 2.395e-05,
        "meta_mean_motion_ddot": 0,
        "tle_line1": "1 36743U 99025EBR 25349.86685575  .00002395  00000+0  95050-3 0  9991",
        "tle_line2": "2 36743  98.6557  38.1117 0047177   3.5743 356.5766 14.29116099607827"
      },
      "geometry": {
        "type": "Point",
        "coordinates": [
          53.327408393875444,
          -42.1525364932455
        ]
      }
    },
    {
      "type": "Feature",
      "properties": {
        "norad_id": 36986,
        "name": "FENGYUN 1C DEB",
        "group": "fengyun-1c-debris",
        "lat": 80.82764659098719,
        "lon": -22.526177934423675,
        "alt_km": 870.466462342516,
        "timestamp": "2025-12-23T05:02:12.319540+00:00",
        "meta_object_name": "FENGYUN 1C DEB",
        "meta_object_id": "1999-025EBS",
        "meta_epoch": "2025-12-20T22:17:23.796096",
        "meta_mean_motion": 14.14646349,
        "meta_eccentricity": 0.0088071,
        "meta_inclination": 99.1446,
        "meta_ra_of_asc_node": 61.1301,
        "meta_arg_of_pericenter": 219.0076,
        "meta_mean_anomaly": 140.4722,
        "meta_ephemeris_type": 0,
        "meta_classification_type": "U",
        "meta_norad_cat_id": 36986,
        "meta_element_set_no": 999,
        "meta_rev_at_epoch": 81860,
        "meta_bstar": 0.0013942,
        "meta_mean_motion_dot": 2.737e-05,
        "meta_mean_motion_ddot": 0,
        "tle_line1": "1 36986U 99025EBS 25354.92874764  .00002737  00000+0  13942-2 0  9992",
        "tle_line2": "2 36986  99.1446  61.1301 0088071 219.0076 140.4722 14.14646349818603"
      },
      "geometry": {
        "type": "Point",
        "coordinates": [
          -22.526177934423675,
          80.82764659098719
        ]
      }
    },
    {
      "type": "Feature",
      "properties": {
        "norad_id": 36987,
        "name": "FENGYUN 1C DEB",
        "group": "fengyun-1c-debris",
        "lat": -70.24371404090725,
        "lon": -89.0229912800031,
        "alt_km": 1109.6979492741493,
        "timestamp": "2025-12-23T05:02:12.319550+00:00",
        "meta_object_name": "FENGYUN 1C DEB",
        "meta_object_id": "1999-025EBT",
        "meta_epoch": "2025-12-19T22:53:32.054208",
        "meta_mean_motion": 13.45891786,
        "meta_eccentricity": 0.0320403,
        "meta_inclination": 100.8195,
        "meta_ra_of_asc_node": 235.2948,
        "meta_arg_of_pericenter": 29.8332,
        "meta_mean_anomaly": 332.0644,
        "meta_ephemeris_type": 0,
        "meta_classification_type": "U",
        "meta_norad_cat_id": 36987,
        "meta_element_set_no": 999,
        "meta_rev_at_epoch": 60974,
        "meta_bstar": 0.0011449,
        "meta_mean_motion_dot": 8.81e-06,
        "meta_mean_motion_ddot": 0,
        "tle_line1": "1 36987U 99025EBT 25353.95384322  .00000881  00000+0  11449-2 0  9999",
        "tle_line2": "2 36987 100.8195 235.2948 0320403  29.8332 332.0644 13.45891786609741"
      },
      "geometry": {
        "type": "Point",
        "coordinates": [
          -89.0229912800031,
          -70.24371404090725
        ]
      }
    }
  ]
}